NORAD_CAT_ID,OBJECT_NAME,OBJECT_TYPE,EPOCH,MEAN_MOTION,ECCENTRICITY,INCLINATION,RA_OF_ASC_NODE,ARG_OF_PERICENTER,MEAN_ANOMALY,BSTAR,MEAN_MOTION_DOT,MEAN_MOTION_DDOT,TLE_LINE0,TLE_LINE1,TLE_LINE2,SEMIMAJOR_AXIS,PERIOD,APOGEE,PERIGEE,DECAYED
49452.0,STARLINK-3150,PAYLOAD,2023-03-07 03:26:24,15.08826512,0.0001358,53.2161,110.7114,91.4615,268.6533,0.00039764,6.044e-05,0.0,0 STARLINK-3150,1 49452U 21104AW  23066.14334351  .00006044  00000-0  39764-3 0  9999,2 49452  53.2161 110.7114 0001358  91.4615 268.6533 15.08826512 74015,6917.922,95.438,540.726,538.847,0.0
49452.0,STARLINK-3150,PAYLOAD,2023-03-07 19:20:17,15.0883241,0.0002802,53.2147,107.739,74.4683,285.6618,0.0013131,0.00020668,0.0,0 STARLINK-3150,1 49452U 21104AW  23066.80575343  .00020668  00000-0  13131-2 0  9997,2 49452  53.2147 107.7390 0002802  74.4683 285.6618 15.08832410 73030,6917.904,95.438,541.707,537.83,0.0
49452.0,STARLINK-3150,PAYLOAD,2023-03-08 09:38:44,15.08844992,0.0001371,53.2147,105.0658,85.4385,274.6764,0.0013025,0.00020505,0.0,0 STARLINK-3150,1 49452U 21104AW  23067.40190798  .00020505  00000-0  13025-2 0  9993,2 49452  53.2147 105.0658 0001371  85.4385 274.6764 15.08844992 74207,6917.865,95.437,540.679,538.782,0.0
49452.0,STARLINK-3150,PAYLOAD,2023-03-08 19:11:03,15.08851351,0.0001378,53.2143,103.2805,94.5423,265.5727,0.0012132,0.00019079,0.0,0 STARLINK-3150,1 49452U 21104AW  23067.79934731  .00019079  00000-0  12132-2 0  9990,2 49452  53.2143 103.2805 0001378  94.5423 265.5727 15.08851351 73189,6917.846,95.437,540.664,538.757,0.0
49452.0,STARLINK-3150,PAYLOAD,2023-03-09 11:04:54,15.08864887,0.0001563,53.2139,100.3067,87.6162,272.5009,0.0017665,0.00027957,0.0,0 STARLINK-3150,1 49452U 21104AW  23068.46174464  .00027957  00000-0  17665-2 0  9994,2 49452  53.2139 100.3067 0001563  87.6162 272.5009 15.08864887 74361,6917.804,95.436,540.751,538.588,0.0
49452.0,STARLINK-3150,PAYLOAD,2023-03-10 01:23:22,15.08861084,0.0001952,53.2138,97.6286,124.9356,235.182,0.0012231,0.00019243,0.0,0 STARLINK-3150,1 49452U 21104AW  23069.05789867  .00019243  00000-0  12231-2 0  9992,2 49452  53.2138  97.6286 0001952 124.9356 235.1820 15.08861084 74455,6917.816,95.436,541.031,538.331,0.0
49452.0,STARLINK-3150,PAYLOAD,2023-03-10 10:55:40,15.08867008,0.0001235,53.2144,95.8438,84.6799,275.4333,0.00080527,0.00012561,0.0,0 STARLINK-3150,1 49452U 21104AW  23069.45533534  .00012561  00000-0  80527-3 0  9994,2 49452  53.2144  95.8438 0001235  84.6799 275.4333 15.08867008 74513,6917.798,95.436,540.517,538.808,0.0
49452.0,STARLINK-3150,PAYLOAD,2023-03-10 18:52:36,15.08841988,9.86e-05,53.214,94.3583,102.0895,258.0207,-3.6145e-05,-8.63e-06,0.0,0 STARLINK-3150,1 49452U 21104AW  23069.78653765 -.00000863  00000-0 -36145-4 0  9991,2 49452  53.2140  94.3583 0000986 102.0895 258.0207 15.08841988 74569,6917.874,95.437,540.421,539.057,0.0
49452.0,STARLINK-3150,PAYLOAD,2023-03-11 10:46:28,15.08829471,0.0001573,53.2153,91.3791,106.8485,253.268,0.00018609,2.674e-05,0.0,0 STARLINK-3150,1 49452U 21104AW  23070.44894661  .00002674  00000-0  18609-3 0  9992,2 49452  53.2153  91.3791 0001573 106.8485 253.2680 15.08829471 74667,6917.913,95.438,540.866,538.689,0.0
49452.0,STARLINK-3150,PAYLOAD,2023-03-12 12:12:39,15.0884615,0.0001351,53.2145,86.6239,92.2744,267.8403,0.00088807,0.00013876,0.0,0 STARLINK-3150,1 49452U 21104AW  23071.50879113  .00013876  00000-0  88807-3 0  9998,2 49452  53.2145  86.6239 0001351  92.2744 267.8403 15.08846150 73747,6917.862,95.437,540.661,538.792,0.0
49452.0,STARLINK-3150,PAYLOAD,2023-03-13 10:28:02,15.08851015,0.0001387,53.2172,82.4607,97.2797,262.8352,0.00019896,2.881e-05,0.0,0 STARLINK-3150,1 49452U 21104AW  23072.43614577  .00002881  00000-0  19896-3 0  9998,2 49452  53.2172  82.4607 0001387  97.2797 262.8352 15.08851015 74961,6917.847,95.437,540.671,538.752,0.0
49452.0,STARLINK-3150,PAYLOAD,2023-03-13 12:03:26,15.08852621,0.0001367,53.2175,82.1646,92.7527,267.3622,0.00030606,4.588e-05,0.0,0 STARLINK-3150,1 49452U 21104AW  23072.50238522  .00004588  00000-0  30606-3 0  9996,2 49452  53.2175  82.1646 0001367  92.7527 267.3622 15.08852621 73898,6917.842,95.437,540.652,538.761,0.0
49452.0,STARLINK-3150,PAYLOAD,2023-03-14 00:46:31,15.08834005,0.0001155,53.2174,79.7841,108.6758,251.4359,-0.00015687,-2.783e-05,0.0,0 STARLINK-3150,1 49452U 21104AW  23073.03231111 -.00002783  00000-0 -15687-3 0  9991,2 49452  53.2174  79.7841 0001155 108.6758 251.4359 15.08834005 75051,6917.899,95.438,540.563,538.965,0.0
49452.0,STARLINK-3150,PAYLOAD,2023-03-14 07:08:04,15.08840655,0.00015,53.2168,78.5945,114.0058,246.1092,-9.0534e-07,-3.02e-06,0.0,0 STARLINK-3150,1 49452U 21104AW  23073.29726903 -.00000302  00000-0 -90534-6 0  9999,2 49452  53.2168  78.5945 0001500 114.0058 246.1092 15.08840655 75091,6917.878,95.438,540.781,538.706,0.0
49452.0,STARLINK-3150,PAYLOAD,2023-03-14 16:40:22,15.08843305,0.0001424,53.217,76.8139,101.3323,258.7829,3.4541e-05,2.62e-06,0.0,0 STARLINK-3150,1 49452U 21104AW  23073.69470967  .00000262  00000-0  34541-4 0  9996,2 49452  53.2170  76.8139 0001424 101.3323 258.7829 15.08843305 74078,6917.87,95.437,540.72,538.75,0.0
49452.0,STARLINK-3150,PAYLOAD,2023-03-15 10:09:36,15.08862757,0.0001439,53.2165,73.5437,98.6307,261.4848,0.00067401,0.00010462,0.0,0 STARLINK-3150,1 49452U 21104AW  23074.42334423  .00010462  00000-0  67401-3 0  9997,2 49452  53.2165  73.5437 0001439  98.6307 261.4848 15.08862757 75269,6917.811,95.436,540.671,538.68,0.0
49452.0,STARLINK-3150,PAYLOAD,2023-03-15 11:45:00,15.08868606,0.0001419,53.2163,73.2461,99.2369,260.8784,0.00098685,0.00015465,0.0,0 STARLINK-3150,1 49452U 21104AW  23074.48958370  .00015465  00000-0  98685-3 0  9992,2 49452  53.2163  73.2461 0001419  99.2369 260.8784 15.08868606 74196,6917.793,95.436,540.64,538.676,0.0
49452.0,STARLINK-3150,PAYLOAD,2023-03-16 02:03:28,15.08835903,9.78e-05,53.2171,70.5713,88.3176,271.7928,-9.7087e-05,-1.832e-05,0.0,0 STARLINK-3150,1 49452U 21104AW  23075.08575010 -.00001832  00000-0 -97087-4 0  9996,2 49452  53.2171  70.5713 0000978  88.3176 271.7928 15.08835903 75364,6917.893,95.438,540.434,539.081,0.0
49452.0,STARLINK-3150,PAYLOAD,2023-03-16 10:00:24,15.08850726,0.0001051,53.2165,69.0839,94.8443,265.267,0.0013731,0.00021639,0.0,0 STARLINK-3150,1 49452U 21104AW  23075.41694832  .00021639  00000-0  13731-2 0  9994,2 49452  53.2165  69.0839 0001051  94.8443 265.2670 15.08850726 75419,6917.848,95.437,540.44,538.986,0.0
49452.0,STARLINK-3150,PAYLOAD,2023-03-16 11:35:47,15.08854985,0.0001118,53.2166,68.7859,98.4131,261.6988,0.00078843,0.00012287,0.0,0 STARLINK-3150,1 49452U 21104AW  23075.48318654  .00012287  00000-0  78843-3 0  9991,2 49452  53.2166  68.7859 0001118  98.4131 261.6988 15.08854985 74340,6917.835,95.437,540.473,538.926,0.0
49452.0,STARLINK-3150,PAYLOAD,2023-03-16 16:21:56,15.08834484,4.81e-05,53.2169,67.8948,137.8646,222.2383,9.5737e-05,1.236e-05,0.0,0 STARLINK-3150,1 49452U 21104AW  23075.68190636  .00001236  00000-0  95737-4 0  9995,2 49452  53.2169  67.8948 0000481 137.8646 222.2383 15.08834484 75450,6917.897,95.438,540.095,539.429,0.0
49452.0,STARLINK-3150,PAYLOAD,2023-03-17 11:26:35,15.08839915,0.000114,53.2154,64.325,82.0268,278.0854,0.0011736,0.00018439,0.0,0 STARLINK-3150,1 49452U 21104AW  23076.47679771  .00018439  00000-0  11736-2 0  9993,2 49452  53.2154  64.3250 0001140  82.0268 278.0854 15.08839915 74495,6917.881,95.438,540.534,538.957,0.0
49452.0,STARLINK-3150,PAYLOAD,2023-03-18 08:06:35,15.0886361,0.0001147,53.2155,60.4579,84.2081,275.9042,0.0010254,0.00016079,0.0,0 STARLINK-3150,1 49452U 21104AW  23077.33791169  .00016079  00000-0  10254-2 0  9997,2 49452  53.2155  60.4579 0001147  84.2081 275.9042 15.08863610 75700,6917.808,95.436,540.467,538.88,0.0
49452.0,STARLINK-3150,PAYLOAD,2023-03-18 16:03:31,15.08838543,9.87e-05,53.2154,58.9709,90.1829,269.9277,-0.00013734,-2.473e-05,0.0,0 STARLINK-3150,1 49452U 21104AW  23077.66911301 -.00002473  00000-0 -13734-3 0  9997,2 49452  53.2154  58.9709 0000987  90.1829 269.9277 15.08838543 75758,6917.885,95.438,540.433,539.067,0.0
49452.0,STARLINK-3150,PAYLOAD,2023-03-19 04:46:36,15.08849766,0.0001095,53.2153,56.5911,90.6326,269.4791,0.00054166,8.345e-05,0.0,0 STARLINK-3150,1 49452U 21104AW  23078.19903187  .00008345  00000-0  54166-3 0  9995,2 49452  53.2153  56.5911 0001095  90.6326 269.4791 15.08849766 75838,6917.851,95.437,540.473,538.958,0.0
49452.0,STARLINK-3150,PAYLOAD,2023-03-19 15:54:18,15.08848582,0.0001059,53.2146,54.5115,74.9805,285.1304,0.00072106,0.00011209,0.0,0 STARLINK-3150,1 49452U 21104AW  23078.66271301  .00011209  00000-0  72106-3 0  9990,2 49452  53.2146  54.5115 0001059  74.9805 285.1304 15.08848582 75909,6917.854,95.437,540.452,538.987,0.0
49452.0,STARLINK-3150,PAYLOAD,2023-03-20 04:37:23,15.08843159,0.000137,53.2169,52.1299,100.3436,259.7711,0.00016254,2.3e-05,0.0,0 STARLINK-3150,1 49452U 21104AW  23079.19263452  .00002300  00000-0  16254-3 0  9991,2 49452  53.2169  52.1299 0001370 100.3436 259.7711 15.08843159 75983,6917.871,95.437,540.683,538.788,0.0
49452.0,STARLINK-3150,PAYLOAD,2023-03-20 09:23:32,15.08850978,0.0001406,53.2169,51.2377,101.2031,258.9119,0.00024936,3.684e-05,0.0,0 STARLINK-3150,1 49452U 21104AW  23079.39135150  .00003684  00000-0  24936-3 0  9998,2 49452  53.2169  51.2377 0001406 101.2031 258.9119 15.08850978 74935,6917.847,95.437,540.684,538.739,0.0
49452.0,STARLINK-3150,PAYLOAD,2023-03-21 07:38:56,15.08849819,0.0001446,53.2175,47.0742,106.2318,253.8833,0.00032703,4.922e-05,0.0,0 STARLINK-3150,1 49452U 21104AW  23080.31871313  .00004922  00000-0  32703-3 0  9997,2 49452  53.2175  47.0742 0001446 106.2318 253.8833 15.08849819 76153,6917.85,95.437,540.716,538.715,0.0
49452.0,STARLINK-3150,PAYLOAD,2023-03-22 04:18:58,15.08831011,0.0001149,53.2168,43.2113,98.8201,261.2922,4.6679e-05,4.55e-06,0.0,0 STARLINK-3150,1 49452U 21104AW  23081.17984559  .00000455  00000-0  46679-4 0  9994,2 49452  53.2168  43.2113 0001149  98.8201 261.2922 15.08831011 76283,6917.908,95.438,540.568,538.978,0.0
